{
  "type": "FeatureCollection",
  "features": [
    {
      "type": "Feature",
      "geometry": {
        "type": "Point",
        "coordinates": [
          76.28558,
          30.591075
        ]
      },
      "properties": {
        "cluster_id": "EVENT_0001",
        "latitude": 30.591075,
        "longitude": 76.28558,
        "first_seen": "2026-07-03 08:37",
        "last_seen": "2026-07-03 08:37",
        "duration_hours": 0.0,
        "detection_count": 2,
        "average_frp": 5.6,
        "maximum_frp": 5.75,
        "average_brightness": 333.88,
        "detections_7d": 2,
        "detections_30d": 2,
        "unique_detection_days": 1,
        "persistence": "Transient",
        "confidence": "nominal",
        "primary_satellite": "N20",
        "distance_to_center_km": 48.683,
        "detection_ids": [
          "FIRMS_N20_20260703_0837_30.5921N_76.2865E",
          "FIRMS_N20_20260703_0837_30.5901N_76.2847E"
        ]
      }
    },
    {
      "type": "Feature",
      "geometry": {
        "type": "Point",
        "coordinates": [
          76.13155,
          30.82466
        ]
      },
      "properties": {
        "cluster_id": "EVENT_0002",
        "latitude": 30.82466,
        "longitude": 76.13155,
        "first_seen": "2026-07-05 07:58",
        "last_seen": "2026-07-05 07:58",
        "duration_hours": 0.0,
        "detection_count": 1,
        "average_frp": 1.6,
        "maximum_frp": 1.6,
        "average_brightness": 334.08,
        "detections_7d": 1,
        "detections_30d": 1,
        "unique_detection_days": 1,
        "persistence": "Transient",
        "confidence": "nominal",
        "primary_satellite": "N20",
        "distance_to_center_km": 22.96,
        "detection_ids": [
          "FIRMS_N20_20260705_0758_30.8247N_76.1316E"
        ]
      }
    },
    {
      "type": "Feature",
      "geometry": {
        "type": "Point",
        "coordinates": [
          76.26231,
          30.89294
        ]
      },
      "properties": {
        "cluster_id": "EVENT_0003",
        "latitude": 30.89294,
        "longitude": 76.26231,
        "first_seen": "2026-07-05 07:58",
        "last_seen": "2026-07-05 07:58",
        "duration_hours": 0.0,
        "detection_count": 1,
        "average_frp": 3.45,
        "maximum_frp": 3.45,
        "average_brightness": 338.89,
        "detections_7d": 1,
        "detections_30d": 1,
        "unique_detection_days": 1,
        "persistence": "Transient",
        "confidence": "nominal",
        "primary_satellite": "N20",
        "distance_to_center_km": 34.773,
        "detection_ids": [
          "FIRMS_N20_20260705_0758_30.8929N_76.2623E"
        ]
      }
    },
    {
      "type": "Feature",
      "geometry": {
        "type": "Point",
        "coordinates": [
          76.20167,
          30.94462
        ]
      },
      "properties": {
        "cluster_id": "EVENT_0004",
        "latitude": 30.94462,
        "longitude": 76.20167,
        "first_seen": "2026-07-05 07:58",
        "last_seen": "2026-07-05 07:58",
        "duration_hours": 0.0,
        "detection_count": 1,
        "average_frp": 2.52,
        "maximum_frp": 2.52,
        "average_brightness": 336.27,
        "detections_7d": 1,
        "detections_30d": 1,
        "unique_detection_days": 1,
        "persistence": "Transient",
        "confidence": "nominal",
        "primary_satellite": "N20",
        "distance_to_center_km": 29.925,
        "detection_ids": [
          "FIRMS_N20_20260705_0758_30.9446N_76.2017E"
        ]
      }
    },
    {
      "type": "Feature",
      "geometry": {
        "type": "Point",
        "coordinates": [
          75.63877,
          30.92682
        ]
      },
      "properties": {
        "cluster_id": "EVENT_0005",
        "latitude": 30.92682,
        "longitude": 75.63877,
        "first_seen": "2026-07-06 07:41",
        "last_seen": "2026-07-06 07:41",
        "duration_hours": 0.0,
        "detection_count": 1,
        "average_frp": 3.19,
        "maximum_frp": 3.19,
        "average_brightness": 337.66,
        "detections_7d": 1,
        "detections_30d": 1,
        "unique_detection_days": 1,
        "persistence": "Transient",
        "confidence": "nominal",
        "primary_satellite": "N20",
        "distance_to_center_km": 25.425,
        "detection_ids": [
          "FIRMS_N20_20260706_0741_30.9268N_75.6388E"
        ]
      }
    },
    {
      "type": "Feature",
      "geometry": {
        "type": "Point",
        "coordinates": [
          75.52628,
          30.91256
        ]
      },
      "properties": {
        "cluster_id": "EVENT_0006",
        "latitude": 30.91256,
        "longitude": 75.52628,
        "first_seen": "2026-07-06 07:41",
        "last_seen": "2026-07-06 07:41",
        "duration_hours": 0.0,
        "detection_count": 1,
        "average_frp": 2.21,
        "maximum_frp": 2.21,
        "average_brightness": 334.64,
        "detections_7d": 1,
        "detections_30d": 1,
        "unique_detection_days": 1,
        "persistence": "Transient",
        "confidence": "nominal",
        "primary_satellite": "N20",
        "distance_to_center_km": 35.752,
        "detection_ids": [
          "FIRMS_N20_20260706_0741_30.9126N_75.5263E"
        ]
      }
    },
    {
      "type": "Feature",
      "geometry": {
        "type": "Point",
        "coordinates": [
          75.59411,
          30.84489
        ]
      },
      "properties": {
        "cluster_id": "EVENT_0007",
        "latitude": 30.84489,
        "longitude": 75.59411,
        "first_seen": "2026-07-07 07:24",
        "last_seen": "2026-07-07 07:24",
        "duration_hours": 0.0,
        "detection_count": 1,
        "average_frp": 3.81,
        "maximum_frp": 3.81,
        "average_brightness": 343.61,
        "detections_7d": 1,
        "detections_30d": 1,
        "unique_detection_days": 1,
        "persistence": "Transient",
        "confidence": "nominal",
        "primary_satellite": "N20",
        "distance_to_center_km": 29.253,
        "detection_ids": [
          "FIRMS_N20_20260707_0724_30.8449N_75.5941E"
        ]
      }
    },
    {
      "type": "Feature",
      "geometry": {
        "type": "Point",
        "coordinates": [
          75.56987,
          31.02118
        ]
      },
      "properties": {
        "cluster_id": "EVENT_0008",
        "latitude": 31.02118,
        "longitude": 75.56987,
        "first_seen": "2026-07-07 07:24",
        "last_seen": "2026-07-07 07:24",
        "duration_hours": 0.0,
        "detection_count": 1,
        "average_frp": 2.16,
        "maximum_frp": 2.16,
        "average_brightness": 336.5,
        "detections_7d": 1,
        "detections_30d": 1,
        "unique_detection_days": 1,
        "persistence": "Transient",
        "confidence": "nominal",
        "primary_satellite": "N20",
        "distance_to_center_km": 35.27,
        "detection_ids": [
          "FIRMS_N20_20260707_0724_31.0212N_75.5699E"
        ]
      }
    },
    {
      "type": "Feature",
      "geometry": {
        "type": "Point",
        "coordinates": [
          75.56538,
          30.92034
        ]
      },
      "properties": {
        "cluster_id": "EVENT_0009",
        "latitude": 30.92034,
        "longitude": 75.56538,
        "first_seen": "2026-07-09 08:26",
        "last_seen": "2026-07-09 08:26",
        "duration_hours": 0.0,
        "detection_count": 1,
        "average_frp": 1.86,
        "maximum_frp": 1.86,
        "average_brightness": 332.22,
        "detections_7d": 1,
        "detections_30d": 1,
        "unique_detection_days": 1,
        "persistence": "Transient",
        "confidence": "nominal",
        "primary_satellite": "N20",
        "distance_to_center_km": 32.169,
        "detection_ids": [
          "FIRMS_N20_20260709_0826_30.9203N_75.5654E"
        ]
      }
    },
    {
      "type": "Feature",
      "geometry": {
        "type": "Point",
        "coordinates": [
          75.4504,
          31.06181
        ]
      },
      "properties": {
        "cluster_id": "EVENT_0010",
        "latitude": 31.06181,
        "longitude": 75.4504,
        "first_seen": "2026-07-09 08:26",
        "last_seen": "2026-07-09 08:26",
        "duration_hours": 0.0,
        "detection_count": 1,
        "average_frp": 5.37,
        "maximum_frp": 5.37,
        "average_brightness": 332.79,
        "detections_7d": 1,
        "detections_30d": 1,
        "unique_detection_days": 1,
        "persistence": "Transient",
        "confidence": "nominal",
        "primary_satellite": "N20",
        "distance_to_center_km": 47.474,
        "detection_ids": [
          "FIRMS_N20_20260709_0826_31.0618N_75.4504E"
        ]
      }
    },
    {
      "type": "Feature",
      "geometry": {
        "type": "Point",
        "coordinates": [
          75.44482,
          31.06116
        ]
      },
      "properties": {
        "cluster_id": "EVENT_0011",
        "latitude": 31.06116,
        "longitude": 75.44482,
        "first_seen": "2026-07-09 08:26",
        "last_seen": "2026-07-09 08:26",
        "duration_hours": 0.0,
        "detection_count": 1,
        "average_frp": 5.37,
        "maximum_frp": 5.37,
        "average_brightness": 331.38,
        "detections_7d": 1,
        "detections_30d": 1,
        "unique_detection_days": 1,
        "persistence": "Transient",
        "confidence": "nominal",
        "primary_satellite": "N20",
        "distance_to_center_km": 47.922,
        "detection_ids": [
          "FIRMS_N20_20260709_0826_31.0612N_75.4448E"
        ]
      }
    },
    {
      "type": "Feature",
      "geometry": {
        "type": "Point",
        "coordinates": [
          75.71434,
          30.68641
        ]
      },
      "properties": {
        "cluster_id": "EVENT_0012",
        "latitude": 30.68641,
        "longitude": 75.71434,
        "first_seen": "2026-07-10 08:07",
        "last_seen": "2026-07-10 08:07",
        "duration_hours": 0.0,
        "detection_count": 1,
        "average_frp": 6.06,
        "maximum_frp": 6.06,
        "average_brightness": 345.98,
        "detections_7d": 1,
        "detections_30d": 1,
        "unique_detection_days": 1,
        "persistence": "Transient",
        "confidence": "nominal",
        "primary_satellite": "N20",
        "distance_to_center_km": 27.425,
        "detection_ids": [
          "FIRMS_N20_20260710_0807_30.6864N_75.7143E"
        ]
      }
    },
    {
      "type": "Feature",
      "geometry": {
        "type": "Point",
        "coordinates": [
          75.65636,
          30.91553
        ]
      },
      "properties": {
        "cluster_id": "EVENT_0013",
        "latitude": 30.91553,
        "longitude": 75.65636,
        "first_seen": "2026-07-10 08:07",
        "last_seen": "2026-07-10 08:07",
        "duration_hours": 0.0,
        "detection_count": 1,
        "average_frp": 4.26,
        "maximum_frp": 4.26,
        "average_brightness": 345.26,
        "detections_7d": 1,
        "detections_30d": 1,
        "unique_detection_days": 1,
        "persistence": "Transient",
        "confidence": "nominal",
        "primary_satellite": "N20",
        "distance_to_center_km": 23.525,
        "detection_ids": [
          "FIRMS_N20_20260710_0807_30.9155N_75.6564E"
        ]
      }
    },
    {
      "type": "Feature",
      "geometry": {
        "type": "Point",
        "coordinates": [
          75.56654,
          30.91224
        ]
      },
      "properties": {
        "cluster_id": "EVENT_0014",
        "latitude": 30.91224,
        "longitude": 75.56654,
        "first_seen": "2026-07-10 08:07",
        "last_seen": "2026-07-10 08:07",
        "duration_hours": 0.0,
        "detection_count": 1,
        "average_frp": 4.15,
        "maximum_frp": 4.15,
        "average_brightness": 343.92,
        "detections_7d": 1,
        "detections_30d": 1,
        "unique_detection_days": 1,
        "persistence": "Transient",
        "confidence": "nominal",
        "primary_satellite": "N20",
        "distance_to_center_km": 31.934,
        "detection_ids": [
          "FIRMS_N20_20260710_0807_30.9122N_75.5665E"
        ]
      }
    },
    {
      "type": "Feature",
      "geometry": {
        "type": "Point",
        "coordinates": [
          75.42482,
          30.90104
        ]
      },
      "properties": {
        "cluster_id": "EVENT_0015",
        "latitude": 30.90104,
        "longitude": 75.42482,
        "first_seen": "2026-07-10 08:07",
        "last_seen": "2026-07-10 08:07",
        "duration_hours": 0.0,
        "detection_count": 1,
        "average_frp": 1.87,
        "maximum_frp": 1.87,
        "average_brightness": 334.52,
        "detections_7d": 1,
        "detections_30d": 1,
        "unique_detection_days": 1,
        "persistence": "Transient",
        "confidence": "nominal",
        "primary_satellite": "N20",
        "distance_to_center_km": 45.287,
        "detection_ids": [
          "FIRMS_N20_20260710_0807_30.9010N_75.4248E"
        ]
      }
    },
    {
      "type": "Feature",
      "geometry": {
        "type": "Point",
        "coordinates": [
          75.46362,
          31.01557
        ]
      },
      "properties": {
        "cluster_id": "EVENT_0016",
        "latitude": 31.01557,
        "longitude": 75.46362,
        "first_seen": "2026-07-10 08:07",
        "last_seen": "2026-07-10 08:07",
        "duration_hours": 0.0,
        "detection_count": 1,
        "average_frp": 1.88,
        "maximum_frp": 1.88,
        "average_brightness": 335.78,
        "detections_7d": 1,
        "detections_30d": 1,
        "unique_detection_days": 1,
        "persistence": "Transient",
        "confidence": "nominal",
        "primary_satellite": "N20",
        "distance_to_center_km": 44.295,
        "detection_ids": [
          "FIRMS_N20_20260710_0807_31.0156N_75.4636E"
        ]
      }
    },
    {
      "type": "Feature",
      "geometry": {
        "type": "Point",
        "coordinates": [
          75.49283,
          31.13899
        ]
      },
      "properties": {
        "cluster_id": "EVENT_0017",
        "latitude": 31.13899,
        "longitude": 75.49283,
        "first_seen": "2026-07-10 08:07",
        "last_seen": "2026-07-10 08:07",
        "duration_hours": 0.0,
        "detection_count": 1,
        "average_frp": 4.03,
        "maximum_frp": 4.03,
        "average_brightness": 342.72,
        "detections_7d": 1,
        "detections_30d": 1,
        "unique_detection_days": 1,
        "persistence": "Transient",
        "confidence": "nominal",
        "primary_satellite": "N20",
        "distance_to_center_km": 48.5,
        "detection_ids": [
          "FIRMS_N20_20260710_0807_31.1390N_75.4928E"
        ]
      }
    },
    {
      "type": "Feature",
      "geometry": {
        "type": "Point",
        "coordinates": [
          76.21571,
          30.77537
        ]
      },
      "properties": {
        "cluster_id": "EVENT_0018",
        "latitude": 30.77537,
        "longitude": 76.21571,
        "first_seen": "2026-07-15 08:13",
        "last_seen": "2026-07-15 08:13",
        "duration_hours": 0.0,
        "detection_count": 1,
        "average_frp": 2.26,
        "maximum_frp": 2.26,
        "average_brightness": 335.57,
        "detections_7d": 1,
        "detections_30d": 1,
        "unique_detection_days": 1,
        "persistence": "Transient",
        "confidence": "nominal",
        "primary_satellite": "N20",
        "distance_to_center_km": 32.277,
        "detection_ids": [
          "FIRMS_N20_20260715_0813_30.7754N_76.2157E"
        ]
      }
    },
    {
      "type": "Feature",
      "geometry": {
        "type": "Point",
        "coordinates": [
          76.14273,
          30.88434
        ]
      },
      "properties": {
        "cluster_id": "EVENT_0019",
        "latitude": 30.88434,
        "longitude": 76.14273,
        "first_seen": "2026-07-15 08:13",
        "last_seen": "2026-07-15 08:13",
        "duration_hours": 0.0,
        "detection_count": 1,
        "average_frp": 2.61,
        "maximum_frp": 2.61,
        "average_brightness": 333.51,
        "detections_7d": 1,
        "detections_30d": 1,
        "unique_detection_days": 1,
        "persistence": "Transient",
        "confidence": "nominal",
        "primary_satellite": "N20",
        "distance_to_center_km": 23.329,
        "detection_ids": [
          "FIRMS_N20_20260715_0813_30.8843N_76.1427E"
        ]
      }
    },
    {
      "type": "Feature",
      "geometry": {
        "type": "Point",
        "coordinates": [
          76.18416,
          30.90398
        ]
      },
      "properties": {
        "cluster_id": "EVENT_0020",
        "latitude": 30.90398,
        "longitude": 76.18416,
        "first_seen": "2026-07-15 08:13",
        "last_seen": "2026-07-15 08:13",
        "duration_hours": 0.0,
        "detection_count": 1,
        "average_frp": 3.85,
        "maximum_frp": 3.85,
        "average_brightness": 334.31,
        "detections_7d": 1,
        "detections_30d": 1,
        "unique_detection_days": 1,
        "persistence": "Transient",
        "confidence": "nominal",
        "primary_satellite": "N20",
        "distance_to_center_km": 27.442,
        "detection_ids": [
          "FIRMS_N20_20260715_0813_30.9040N_76.1842E"
        ]
      }
    },
    {
      "type": "Feature",
      "geometry": {
        "type": "Point",
        "coordinates": [
          76.18354,
          30.90742
        ]
      },
      "properties": {
        "cluster_id": "EVENT_0021",
        "latitude": 30.90742,
        "longitude": 76.18354,
        "first_seen": "2026-07-15 08:13",
        "last_seen": "2026-07-15 08:13",
        "duration_hours": 0.0,
        "detection_count": 1,
        "average_frp": 7.42,
        "maximum_frp": 7.42,
        "average_brightness": 336.96,
        "detections_7d": 1,
        "detections_30d": 1,
        "unique_detection_days": 1,
        "persistence": "Transient",
        "confidence": "nominal",
        "primary_satellite": "N20",
        "distance_to_center_km": 27.429,
        "detection_ids": [
          "FIRMS_N20_20260715_0813_30.9074N_76.1835E"
        ]
      }
    },
    {
      "type": "Feature",
      "geometry": {
        "type": "Point",
        "coordinates": [
          75.40314,
          30.90927
        ]
      },
      "properties": {
        "cluster_id": "EVENT_0022",
        "latitude": 30.90927,
        "longitude": 75.40314,
        "first_seen": "2026-07-15 08:13",
        "last_seen": "2026-07-15 08:13",
        "duration_hours": 0.0,
        "detection_count": 1,
        "average_frp": 3.0,
        "maximum_frp": 3.0,
        "average_brightness": 337.06,
        "detections_7d": 1,
        "detections_30d": 1,
        "unique_detection_days": 1,
        "persistence": "Transient",
        "confidence": "nominal",
        "primary_satellite": "N20",
        "distance_to_center_km": 47.413,
        "detection_ids": [
          "FIRMS_N20_20260715_0813_30.9093N_75.4031E"
        ]
      }
    },
    {
      "type": "Feature",
      "geometry": {
        "type": "Point",
        "coordinates": [
          75.52641,
          31.06244
        ]
      },
      "properties": {
        "cluster_id": "EVENT_0023",
        "latitude": 31.06244,
        "longitude": 75.52641,
        "first_seen": "2026-07-15 08:13",
        "last_seen": "2026-07-15 08:13",
        "duration_hours": 0.0,
        "detection_count": 1,
        "average_frp": 3.65,
        "maximum_frp": 3.65,
        "average_brightness": 341.68,
        "detections_7d": 1,
        "detections_30d": 1,
        "unique_detection_days": 1,
        "persistence": "Transient",
        "confidence": "nominal",
        "primary_satellite": "N20",
        "distance_to_center_km": 41.109,
        "detection_ids": [
          "FIRMS_N20_20260715_0813_31.0624N_75.5264E"
        ]
      }
    },
    {
      "type": "Feature",
      "geometry": {
        "type": "Point",
        "coordinates": [
          75.90708,
          30.88996
        ]
      },
      "properties": {
        "cluster_id": "EVENT_0024",
        "latitude": 30.88996,
        "longitude": 75.90708,
        "first_seen": "2026-07-15 20:38",
        "last_seen": "2026-07-15 20:38",
        "duration_hours": 0.0,
        "detection_count": 1,
        "average_frp": 0.87,
        "maximum_frp": 0.87,
        "average_brightness": 309.23,
        "detections_7d": 1,
        "detections_30d": 1,
        "unique_detection_days": 1,
        "persistence": "Transient",
        "confidence": "nominal",
        "primary_satellite": "N20",
        "distance_to_center_km": 1.793,
        "detection_ids": [
          "FIRMS_N20_20260715_2038_30.8900N_75.9071E"
        ]
      }
    },
    {
      "type": "Feature",
      "geometry": {
        "type": "Point",
        "coordinates": [
          75.4222,
          30.91678
        ]
      },
      "properties": {
        "cluster_id": "EVENT_0025",
        "latitude": 30.91678,
        "longitude": 75.4222,
        "first_seen": "2026-07-16 07:54",
        "last_seen": "2026-07-16 07:54",
        "duration_hours": 0.0,
        "detection_count": 1,
        "average_frp": 4.42,
        "maximum_frp": 4.42,
        "average_brightness": 335.42,
        "detections_7d": 1,
        "detections_30d": 1,
        "unique_detection_days": 1,
        "persistence": "Transient",
        "confidence": "low",
        "primary_satellite": "N20",
        "distance_to_center_km": 45.675,
        "detection_ids": [
          "FIRMS_N20_20260716_0754_30.9168N_75.4222E"
        ]
      }
    },
    {
      "type": "Feature",
      "geometry": {
        "type": "Point",
        "coordinates": [
          76.22543,
          30.73457
        ]
      },
      "properties": {
        "cluster_id": "EVENT_0026",
        "latitude": 30.73457,
        "longitude": 76.22543,
        "first_seen": "2026-07-16 07:54",
        "last_seen": "2026-07-16 07:54",
        "duration_hours": 0.0,
        "detection_count": 1,
        "average_frp": 4.6,
        "maximum_frp": 4.6,
        "average_brightness": 339.6,
        "detections_7d": 1,
        "detections_30d": 1,
        "unique_detection_days": 1,
        "persistence": "Transient",
        "confidence": "nominal",
        "primary_satellite": "N20",
        "distance_to_center_km": 34.944,
        "detection_ids": [
          "FIRMS_N20_20260716_0754_30.7346N_76.2254E"
        ]
      }
    },
    {
      "type": "Feature",
      "geometry": {
        "type": "Point",
        "coordinates": [
          75.52117,
          30.85322
        ]
      },
      "properties": {
        "cluster_id": "EVENT_0027",
        "latitude": 30.85322,
        "longitude": 75.52117,
        "first_seen": "2026-07-17 07:35",
        "last_seen": "2026-07-17 07:35",
        "duration_hours": 0.0,
        "detection_count": 1,
        "average_frp": 10.45,
        "maximum_frp": 10.45,
        "average_brightness": 352.16,
        "detections_7d": 1,
        "detections_30d": 1,
        "unique_detection_days": 1,
        "persistence": "Transient",
        "confidence": "nominal",
        "primary_satellite": "N20",
        "distance_to_center_km": 36.1,
        "detection_ids": [
          "FIRMS_N20_20260717_0735_30.8532N_75.5212E"
        ]
      }
    },
    {
      "type": "Feature",
      "geometry": {
        "type": "Point",
        "coordinates": [
          75.52035,
          31.01746
        ]
      },
      "properties": {
        "cluster_id": "EVENT_0028",
        "latitude": 31.01746,
        "longitude": 75.52035,
        "first_seen": "2026-07-18 07:18",
        "last_seen": "2026-07-18 07:18",
        "duration_hours": 0.0,
        "detection_count": 1,
        "average_frp": 3.27,
        "maximum_frp": 3.27,
        "average_brightness": 330.64,
        "detections_7d": 1,
        "detections_30d": 1,
        "unique_detection_days": 1,
        "persistence": "Transient",
        "confidence": "nominal",
        "primary_satellite": "N20",
        "distance_to_center_km": 39.359,
        "detection_ids": [
          "FIRMS_N20_20260718_0718_31.0175N_75.5203E"
        ]
      }
    },
    {
      "type": "Feature",
      "geometry": {
        "type": "Point",
        "coordinates": [
          75.47137,
          30.80121
        ]
      },
      "properties": {
        "cluster_id": "EVENT_0029",
        "latitude": 30.80121,
        "longitude": 75.47137,
        "first_seen": "2026-08-16 08:13",
        "last_seen": "2026-08-16 08:13",
        "duration_hours": 0.0,
        "detection_count": 1,
        "average_frp": 2.36,
        "maximum_frp": 2.36,
        "average_brightness": 334.22,
        "detections_7d": 1,
        "detections_30d": 1,
        "unique_detection_days": 1,
        "persistence": "Transient",
        "confidence": "nominal",
        "primary_satellite": "N20",
        "distance_to_center_km": 41.609,
        "detection_ids": [
          "FIRMS_N20_20260816_0813_30.8012N_75.4714E"
        ]
      }
    },
    {
      "type": "Feature",
      "geometry": {
        "type": "Point",
        "coordinates": [
          76.31641,
          30.66109
        ]
      },
      "properties": {
        "cluster_id": "EVENT_0030",
        "latitude": 30.66109,
        "longitude": 76.31641,
        "first_seen": "2026-09-01 08:13",
        "last_seen": "2026-09-01 08:13",
        "duration_hours": 0.0,
        "detection_count": 1,
        "average_frp": 3.62,
        "maximum_frp": 3.62,
        "average_brightness": 334.5,
        "detections_7d": 1,
        "detections_30d": 1,
        "unique_detection_days": 1,
        "persistence": "Transient",
        "confidence": "nominal",
        "primary_satellite": "N20",
        "distance_to_center_km": 46.513,
        "detection_ids": [
          "FIRMS_N20_20260901_0813_30.6611N_76.3164E"
        ]
      }
    },
    {
      "type": "Feature",
      "geometry": {
        "type": "Point",
        "coordinates": [
          76.23922,
          30.9613
        ]
      },
      "properties": {
        "cluster_id": "EVENT_0031",
        "latitude": 30.9613,
        "longitude": 76.23922,
        "first_seen": "2026-09-13 07:50",
        "last_seen": "2026-09-13 07:50",
        "duration_hours": 0.0,
        "detection_count": 1,
        "average_frp": 4.73,
        "maximum_frp": 4.73,
        "average_brightness": 336.78,
        "detections_7d": 1,
        "detections_30d": 1,
        "unique_detection_days": 1,
        "persistence": "Transient",
        "confidence": "nominal",
        "primary_satellite": "N20",
        "distance_to_center_km": 33.872,
        "detection_ids": [
          "FIRMS_N20_20260913_0750_30.9613N_76.2392E"
        ]
      }
    },
    {
      "type": "Feature",
      "geometry": {
        "type": "Point",
        "coordinates": [
          75.87242,
          30.95447
        ]
      },
      "properties": {
        "cluster_id": "EVENT_0032",
        "latitude": 30.95447,
        "longitude": 75.87242,
        "first_seen": "2026-09-13 20:14",
        "last_seen": "2026-09-13 20:14",
        "duration_hours": 0.0,
        "detection_count": 1,
        "average_frp": 1.38,
        "maximum_frp": 1.38,
        "average_brightness": 304.27,
        "detections_7d": 1,
        "detections_30d": 1,
        "unique_detection_days": 1,
        "persistence": "Transient",
        "confidence": "nominal",
        "primary_satellite": "N20",
        "distance_to_center_km": 9.113,
        "detection_ids": [
          "FIRMS_N20_20260913_2014_30.9545N_75.8724E"
        ]
      }
    }
  ]
}